BEIDOU-2 IGSO-1         
1 36828U 10036A   26132.68902604 -.00000041  00000+0  00000+0 0  9990
2 36828  54.2951 163.2807 0058855 224.5644 197.8413  1.00282752 57743
BEIDOU-2 G4             
1 37210U 10057A   26139.27009800 -.00000114  00000+0  00000+0 0  9998
2 37210   3.5756  69.1010 0005816 208.3639 216.7012  1.00271699 57005
BEIDOU-2 IGSO-2         
1 37256U 10068A   26137.67739373 -.00000224  00000+0  00000+0 0  9999
2 37256  47.6069 272.2104 0054652 211.9480 101.4506  1.00292865 56485
BEIDOU-2 IGSO-3         
1 37384U 11013A   26134.75077336 -.00000206  00000+0  00000+0 0  9992
2 37384  62.3634  40.4703 0033942 185.9417  24.6219  1.00276202 55324
BEIDOU-2 IGSO-4         
1 37763U 11038A   26139.04274976  .00000034  00000+0  00000+0 0  9994
2 37763  54.5940 165.9328 0158505 231.3219 306.7850  1.00290688 54354
BEIDOU-2 IGSO-5         
1 37948U 11073A   26138.85233546 -.00000178  00000+0  00000+0 0  9994
2 37948  47.7336 271.9068 0112056 220.5863 143.1391  1.00255056 52842
BEIDOU-2 G5             
1 38091U 12008A   26139.17883845  .00000056  00000+0  00000+0 0  9996
2 38091   3.5020  69.8577 0010951 269.9610  20.0927  1.00272674 52077
BEIDOU-2 M3             
1 38250U 12018A   26137.58206861 -.00000055  00000+0  00000+0 0  9994
2 38250  55.7849 305.9066 0019705 276.2878  83.4643  1.86229893 95379
BEIDOU-2 M4             
1 38251U 12018B   26137.51432167 -.00000055  00000+0  00000+0 0  9998
2 38251  55.6853 305.1252 0010929 280.3706  79.4822  1.86229518 95376
BEIDOU-2 M6             
1 38775U 12050B   26137.76112590 -.00000044  00000+0  00000+0 0  9995
2 38775  56.5190  63.9003 0014276 352.3539   7.6101  1.86230796 92748
BEIDOU-2 G6             
1 38953U 12059A   26138.89860588 -.00000175  00000+0  00000+0 0  9999
2 38953   4.3475  73.8218 0010210 320.0481 250.2664  1.00270389 49619
BEIDOU-3S IGSO-1S       
1 40549U 15019A   26138.91275043 -.00000184  00000+0  00000+0 0  9991
2 40549  49.2513 295.8119 0038077 190.0381 173.0507  1.00255962 40782
BEIDOU-3S M2S           
1 40748U 15037A   26138.25413766 -.00000056  00000+0  00000+0 0  9993
2 40748  54.8978 303.0766 0007540 266.1260  93.7615  1.86231970 73569
BEIDOU-3S M1S           
1 40749U 15037B   26139.00208343 -.00000056  00000+0  00000+0 0  9991
2 40749  54.8942 303.0383 0004029  57.2164 302.7967  1.86254720 73580
BEIDOU-3S IGSO-2S       
1 40938U 15053A   26138.81066755 -.00000156  00000+0  00000+0 0  9997
2 40938  49.2693 259.1314 0064803 191.1122 174.4649  1.00265498 39060
BEIDOU-2 IGSO-6         
1 41434U 16021A   26138.68914218 -.00000169  00000+0  00000+0 0  9990
2 41434  60.1864  38.3332 0057292 232.4500 308.0628  1.00264138 37187
BEIDOU-2 G7             
1 41586U 16037A   26139.26030463 -.00000353  00000+0  00000+0 0  9996
2 41586   1.6488  69.0382 0007268 359.0913  13.0090  1.00265995  6606
BEIDOU-3 M1             
1 43001U 17069A   26138.06346546 -.00000043  00000+0  00000+0 0  9991
2 43001  56.6673  64.0769 0011509 321.6638  38.2413  1.86231036 58048
BEIDOU-3 M2             
1 43002U 17069B   26138.00213562 -.00000043  00000+0  00000+0 0  9997
2 43002  56.6663  64.1153 0009753 344.6982  15.2587  1.86230722 58038
BEIDOU-3 M7             
1 43107U 18003A   26138.28073387 -.00000057  00000+0  00000+0 0  9996
2 43107  54.3555 303.3579 0005156  87.0332 273.0001  1.86228032 56796
BEIDOU-3 M8             
1 43108U 18003B   26132.85647029 -.00000043  00000+0  00000+0 0  9999
2 43108  54.3540 303.5291 0002179 277.0252  82.9401  1.86231209 56700
BEIDOU-3 M4             
1 43207U 18018A   26138.13174855 -.00000043  00000+0  00000+0 0  9994
2 43207  56.6264  64.1398 0007886   9.7385 350.2635  1.86230951 56188
BEIDOU-3 M3             
1 43208U 18018B   26138.19820882 -.00000043  00000+0  00000+0 0  9999
2 43208  56.6259  64.1415 0009473 335.4421  24.5000  1.86230879 56183
BEIDOU-3 M9             
1 43245U 18029A   26138.41587542 -.00000055  00000+0  00000+0 0  9993
2 43245  54.2214 300.9891 0000930 116.3065 243.6755  1.86227947 55347
BEIDOU-3 M10            
1 43246U 18029B   26138.35038440 -.00000055  00000+0  00000+0 0  9995
2 43246  54.2199 301.0187 0004493  37.7043 322.2995  1.86229173 55321
BEIDOU-2 IGSO-7         
1 43539U 18057A   26138.83110319 -.00000023  00000+0  00000+0 0  9995
2 43539  55.1880 163.3148 0104303 237.9120 246.3491  1.00260296 28830
BEIDOU-3 M5             
1 43581U 18062A   26139.11155625  .00000056  00000+0  00000+0 0  9994
2 43581  54.0834 183.2930 0005103 287.7029  72.3233  1.86228797 53094
BEIDOU-3 M6             
1 43582U 18062B   26137.36403050  .00000082  00000+0  00000+0 0  9997
2 43582  54.0833 183.3416 0004738  15.5717 344.5351  1.86227445 53069
BEIDOU-3 M12            
1 43602U 18067A   26137.30242253  .00000084  00000+0  00000+0 0  9997
2 43602  54.1786 182.0879 0007743  31.4775 328.6606  1.86227757 52543
BEIDOU-3 M11            
1 43603U 18067B   26139.04825810  .00000058  00000+0  00000+0 0  9998
2 43603  54.1757 181.9925 0004396  17.0226 343.0733  1.86227309 52606
BEIDOU-3 M13            
1 43622U 18072A   26139.00324684 -.00000042  00000+0  00000+0 0  9998
2 43622  56.6003  63.6232 0008188 322.9807  36.9540  1.86231208 52114
